{"fetched_at":"2026-03-29T16:36:15Z","count":15609,"tles":[{"name":"STARLINK-6167","line1":"1 57126U 23090AB  26087.21832896 -.00000241  00000+0 -27626-5 0  9993","line2":"2 57126  43.0017 173.7013 0001148 275.3444  84.7267 15.02536117153209","category":"Starlink"}]}